start=new Date('2022-01-05T00:00:00.000Z').valueOf();
sats=[{"FILE":"3263295","MEAN_MOTION":"15.06392379","GP_ID":"193178716","CLASSIFICATION_TYPE":"U","NORAD_CAT_ID":"45704","EPHEMERIS_TYPE":"0","OBJECT_ID":"2020-035AZ","EPOCH":"2022-01-04T10:17:58.627392","TIME_SYSTEM":"UTC","BSTAR":"-0.00011608000000","TLE_LINE1":"1 45704U 20035AZ  22004.42915078 -.00002010  00000-0 -11608-3 0  9998","MEAN_ELEMENT_THEORY":"SGP4","DECAY_DATE":null,"LAUNCH_DATE":"2020-06-04","COUNTRY_CODE":"US","INCLINATION":"53.0588","OBJECT_NAME":"STARLINK-1409","ECCENTRICITY":"0.00012980","SEMIMAJOR_AXIS":"6925.372","CENTER_NAME":"EARTH","TLE_LINE2":"2 45704  53.0588  73.7561 0001298  81.7661 278.3475 15.06392379 88848","MEAN_ANOMALY":"278.3475","ARG_OF_PERICENTER":"81.7661","REV_AT_EPOCH":"8884","PERIAPSIS":"546.338","RCS_SIZE":"LARGE","PERIOD":"95.593","RA_OF_ASC_NODE":"73.7561","REF_FRAME":"TEME","MEAN_MOTION_DDOT":"0.0000000000000","OBJECT_TYPE":"PAYLOAD","APOAPSIS":"548.136","MEAN_MOTION_DOT":"-0.00002010","ELEMENT_SET_NO":"999","SITE":"AFETR"},{"OBJECT_TYPE":"PAYLOAD","MEAN_MOTION_DDOT":"0.0000000000000","REF_FRAME":"TEME","SITE":"AFETR","MEAN_MOTION_DOT":"0.00000183","APOAPSIS":"548.224","ELEMENT_SET_NO":"999","MEAN_ANOMALY":"280.0652","TLE_LINE2":"2 45705  53.0544  73.3686 0001415  80.0496 280.0652 15.06390156 88842","SEMIMAJOR_AXIS":"6925.379","CENTER_NAME":"EARTH","PERIOD":"95.593","RA_OF_ASC_NODE":"73.3686","RCS_SIZE":"LARGE","REV_AT_EPOCH":"8884","ARG_OF_PERICENTER":"80.0496","PERIAPSIS":"546.264","TLE_LINE1":"1 45705U 20035BA  22004.52224561  .00000183  00000-0  31215-4 0  9994","MEAN_ELEMENT_THEORY":"SGP4","BSTAR":"0.00003121500000","OBJECT_NAME":"STARLINK-1410","INCLINATION":"53.0544","ECCENTRICITY":"0.00014150","DECAY_DATE":null,"COUNTRY_CODE":"US","LAUNCH_DATE":"2020-06-04","MEAN_MOTION":"15.06390156","GP_ID":"193178467","CLASSIFICATION_TYPE":"U","NORAD_CAT_ID":"45705","EPHEMERIS_TYPE":"0","FILE":"3263295","TIME_SYSTEM":"UTC","EPOCH":"2022-01-04T12:32:02.020704","OBJECT_ID":"2020-035BA"},{"RCS_SIZE":"LARGE","PERIOD":"95.592","RA_OF_ASC_NODE":"43.0993","ARG_OF_PERICENTER":"75.1550","REV_AT_EPOCH":"8927","PERIAPSIS":"546.250","TLE_LINE2":"2 45706  53.0551  43.0993 0001371  75.1550 284.9590 15.06404701 89277","MEAN_ANOMALY":"284.9590","SEMIMAJOR_AXIS":"6925.334","CENTER_NAME":"EARTH","SITE":"AFETR","APOAPSIS":"548.149","MEAN_MOTION_DOT":"0.00000579","ELEMENT_SET_NO":"999","OBJECT_TYPE":"PAYLOAD","REF_FRAME":"TEME","MEAN_MOTION_DDOT":"0.0000000000000","OBJECT_ID":"2020-035BB","EPOCH":"2022-01-04T13:55:37.151904","TIME_SYSTEM":"UTC","CLASSIFICATION_TYPE":"U","GP_ID":"193213571","MEAN_MOTION":"15.06404701","NORAD_CAT_ID":"45706","EPHEMERIS_TYPE":"0","FILE":"3264067","INCLINATION":"53.0551","OBJECT_NAME":"STARLINK-1411","ECCENTRICITY":"0.00013710","DECAY_DATE":null,"LAUNCH_DATE":"2020-06-04","COUNTRY_CODE":"US","TLE_LINE1":"1 45706U 20035BB  22004.58029111  .00000579  00000-0  57751-4 0  9997","MEAN_ELEMENT_THEORY":"SGP4","BSTAR":"0.00005775100000"},{"FILE":"3263295","GP_ID":"193177965","MEAN_MOTION":"15.06395177","CLASSIFICATION_TYPE":"U","EPHEMERIS_TYPE":"0","NORAD_CAT_ID":"45707","OBJECT_ID":"2020-035BC","EPOCH":"2022-01-04T09:03:42.553440","TIME_SYSTEM":"UTC","BSTAR":"0.00005438500000","TLE_LINE1":"1 45707U 20035BC  22004.37757585  .00000529  00000-0  54385-4 0  9993","MEAN_ELEMENT_THEORY":"SGP4","DECAY_DATE":null,"COUNTRY_CODE":"US","LAUNCH_DATE":"2020-06-04","OBJECT_NAME":"STARLINK-1412","INCLINATION":"53.0558","ECCENTRICITY":"0.00011290","SEMIMAJOR_AXIS":"6925.363","CENTER_NAME":"EARTH","TLE_LINE2":"2 45707  53.0558  44.0140 0001129  91.8201 268.2917 15.06395177 89251","MEAN_ANOMALY":"268.2917","ARG_OF_PERICENTER":"91.8201","REV_AT_EPOCH":"8925","PERIAPSIS":"546.446","RCS_SIZE":"LARGE","PERIOD":"95.592","RA_OF_ASC_NODE":"44.0140","REF_FRAME":"TEME","MEAN_MOTION_DDOT":"0.0000000000000","OBJECT_TYPE":"PAYLOAD","APOAPSIS":"548.010","MEAN_MOTION_DOT":"0.00000529","ELEMENT_SET_NO":"999","SITE":"AFETR"},{"SITE":"AFETR","APOAPSIS":"548.273","MEAN_MOTION_DOT":"-0.00001484","ELEMENT_SET_NO":"999","OBJECT_TYPE":"PAYLOAD","REF_FRAME":"TEME","MEAN_MOTION_DDOT":"0.0000000000000","RCS_SIZE":"LARGE","PERIOD":"95.593","RA_OF_ASC_NODE":"42.9386","ARG_OF_PERICENTER":"72.8642","REV_AT_EPOCH":"8929","PERIAPSIS":"546.197","TLE_LINE2":"2 45708  53.0545  42.9386 0001499  72.8642 287.2511 15.06392902 89293","MEAN_ANOMALY":"287.2511","SEMIMAJOR_AXIS":"6925.370","CENTER_NAME":"EARTH","INCLINATION":"53.0545","OBJECT_NAME":"STARLINK-1418","ECCENTRICITY":"0.00014990","DECAY_DATE":null,"COUNTRY_CODE":"US","LAUNCH_DATE":"2020-06-04","TLE_LINE1":"1 45708U 20035BD  22004.61716093 -.00001484  00000-0 -80761-4 0  9990","MEAN_ELEMENT_THEORY":"SGP4","BSTAR":"-0.00008076100000","EPOCH":"2022-01-04T14:48:42.704352","OBJECT_ID":"2020-035BD","TIME_SYSTEM":"UTC","MEAN_MOTION":"15.06392902","GP_ID":"193213069","CLASSIFICATION_TYPE":"U","EPHEMERIS_TYPE":"0","NORAD_CAT_ID":"45708","FILE":"3264067"},{"CENTER_NAME":"EARTH","SEMIMAJOR_AXIS":"6925.363","MEAN_ANOMALY":"282.9528","TLE_LINE2":"2 45709  53.0567  43.0630 0001471  77.1625 282.9528 15.06395203 89243","PERIAPSIS":"546.210","REV_AT_EPOCH":"8924","ARG_OF_PERICENTER":"77.1625","RA_OF_ASC_NODE":"43.0630","PERIOD":"95.592","RCS_SIZE":"LARGE","MEAN_MOTION_DDOT":"0.0000000000000","REF_FRAME":"TEME","OBJECT_TYPE":"PAYLOAD","ELEMENT_SET_NO":"999","MEAN_MOTION_DOT":"-0.00000965","APOAPSIS":"548.247","SITE":"AFETR","FILE":"3264067","NORAD_CAT_ID":"45709","EPHEMERIS_TYPE":"0","GP_ID":"193213319","CLASSIFICATION_TYPE":"U","MEAN_MOTION":"15.06395203","TIME_SYSTEM":"UTC","EPOCH":"2022-01-04T14:06:14.942016","OBJECT_ID":"2020-035BE","BSTAR":"-0.00004591900000","MEAN_ELEMENT_THEORY":"SGP4","TLE_LINE1":"1 45709U 20035BE  22004.58767294 -.00000965  00000-0 -45919-4 0  9995","LAUNCH_DATE":"2020-06-04","COUNTRY_CODE":"US","DECAY_DATE":null,"ECCENTRICITY":"0.00014710","OBJECT_NAME":"STARLINK-1421","INCLINATION":"53.0567"},{"BSTAR":"0.00003001100000","MEAN_ELEMENT_THEORY":"SGP4","TLE_LINE1":"1 45710U 20035BF  22004.38493599  .00000166  00000-0  30011-4 0  9997","COUNTRY_CODE":"US","LAUNCH_DATE":"2020-06-04","DECAY_DATE":null,"ECCENTRICITY":"0.00012300","OBJECT_NAME":"STARLINK-1423","INCLINATION":"53.0541","FILE":"3263295","NORAD_CAT_ID":"45710","EPHEMERIS_TYPE":"0","GP_ID":"193177216","CLASSIFICATION_TYPE":"U","MEAN_MOTION":"15.06404809","TIME_SYSTEM":"UTC","OBJECT_ID":"2020-035BF","EPOCH":"2022-01-04T09:14:18.469536","MEAN_MOTION_DDOT":"0.0000000000000","REF_FRAME":"TEME","OBJECT_TYPE":"PAYLOAD","ELEMENT_SET_NO":"999","MEAN_MOTION_DOT":"0.00000166","APOAPSIS":"548.051","SITE":"AFETR","CENTER_NAME":"EARTH","SEMIMAJOR_AXIS":"6925.334","MEAN_ANOMALY":"284.6891","TLE_LINE2":"2 45710  53.0541  43.9782 0001230  75.4235 284.6891 15.06404809 89251","PERIAPSIS":"546.347","REV_AT_EPOCH":"8925","ARG_OF_PERICENTER":"75.4235","RA_OF_ASC_NODE":"43.9782","PERIOD":"95.592","RCS_SIZE":"LARGE"},{"APOAPSIS":"548.297","MEAN_MOTION_DOT":"0.00000703","ELEMENT_SET_NO":"999","SITE":"AFETR","REF_FRAME":"TEME","MEAN_MOTION_DDOT":"0.0000000000000","OBJECT_TYPE":"PAYLOAD","ARG_OF_PERICENTER":"68.2800","REV_AT_EPOCH":"8927","PERIAPSIS":"546.156","RCS_SIZE":"LARGE","PERIOD":"95.592","RA_OF_ASC_NODE":"43.1734","SEMIMAJOR_AXIS":"6925.362","CENTER_NAME":"EARTH","TLE_LINE2":"2 45711  53.0549  43.1734 0001546  68.2800 291.8354 15.06395702 89274","MEAN_ANOMALY":"291.8354","DECAY_DATE":null,"LAUNCH_DATE":"2020-06-04","COUNTRY_CODE":"US","INCLINATION":"53.0549","OBJECT_NAME":"STARLINK-1433","ECCENTRICITY":"0.00015460","BSTAR":"0.00006612800000","TLE_LINE1":"1 45711U 20035BG  22004.56556174  .00000703  00000-0  66128-4 0  9992","MEAN_ELEMENT_THEORY":"SGP4","OBJECT_ID":"2020-035BG","EPOCH":"2022-01-04T13:34:24.534336","TIME_SYSTEM":"UTC","FILE":"3264067","CLASSIFICATION_TYPE":"U","GP_ID":"193213822","MEAN_MOTION":"15.06395702","NORAD_CAT_ID":"45711","EPHEMERIS_TYPE":"0"},{"MEAN_ANOMALY":"283.2589","TLE_LINE2":"2 45712  53.0557  43.1903 0001505  76.8568 283.2589 15.06393887 89281","CENTER_NAME":"EARTH","SEMIMAJOR_AXIS":"6925.367","PERIOD":"95.593","RA_OF_ASC_NODE":"43.1903","RCS_SIZE":"LARGE","PERIAPSIS":"546.190","REV_AT_EPOCH":"8928","ARG_OF_PERICENTER":"76.8568","OBJECT_TYPE":"PAYLOAD","MEAN_MOTION_DDOT":"0.0000000000000","REF_FRAME":"TEME","SITE":"AFETR","ELEMENT_SET_NO":"999","MEAN_MOTION_DOT":"-0.00001209","APOAPSIS":"548.275","EPHEMERIS_TYPE":"0","NORAD_CAT_ID":"45712","GP_ID":"193178717","MEAN_MOTION":"15.06393887","CLASSIFICATION_TYPE":"U","FILE":"3263295","TIME_SYSTEM":"UTC","EPOCH":"2022-01-04T13:29:05.670816","OBJECT_ID":"2020-035BH","MEAN_ELEMENT_THEORY":"SGP4","TLE_LINE1":"1 45712U 20035BH  22004.56187119 -.00001209  00000-0 -62298-4 0  9990","BSTAR":"-0.00006229800000","ECCENTRICITY":"0.00015050","OBJECT_NAME":"STARLINK-1434","INCLINATION":"53.0557","LAUNCH_DATE":"2020-06-04","COUNTRY_CODE":"US","DECAY_DATE":null},{"APOAPSIS":"548.245","MEAN_MOTION_DOT":"-0.00001097","ELEMENT_SET_NO":"999","SITE":"AFETR","REF_FRAME":"TEME","MEAN_MOTION_DDOT":"0.0000000000000","OBJECT_TYPE":"PAYLOAD","ARG_OF_PERICENTER":"74.3785","REV_AT_EPOCH":"8900","PERIAPSIS":"546.237","RCS_SIZE":"LARGE","RA_OF_ASC_NODE":"62.7992","PERIOD":"95.593","SEMIMAJOR_AXIS":"6925.376","CENTER_NAME":"EARTH","TLE_LINE2":"2 45713  53.0545  62.7992 0001450  74.3785 285.7364 15.06391113 89005","MEAN_ANOMALY":"285.7364","DECAY_DATE":null,"LAUNCH_DATE":"2020-06-04","COUNTRY_CODE":"US","OBJECT_NAME":"STARLINK-1436","INCLINATION":"53.0545","ECCENTRICITY":"0.00014500","BSTAR":"-0.00005474600000","TLE_LINE1":"1 45713U 20035BJ  22004.64849153 -.00001097  00000-0 -54746-4 0  9997","MEAN_ELEMENT_THEORY":"SGP4","EPOCH":"2022-01-04T15:33:49.668192","OBJECT_ID":"2020-035BJ","TIME_SYSTEM":"UTC","FILE":"3264067","CLASSIFICATION_TYPE":"U","GP_ID":"193212820","MEAN_MOTION":"15.06391113","NORAD_CAT_ID":"45713","EPHEMERIS_TYPE":"0"}];
